[{"OBJECT_NAME":"YAOGAN-39 04C","OBJECT_ID":"2023-163E","EPOCH":"2026-03-09T23:09:59.754816","MEAN_MOTION":15.16776938,"ECCENTRICITY":0.00075996,"INCLINATION":34.9897,"RA_OF_ASC_NODE":267.2485,"ARG_OF_PERICENTER":234.7025,"MEAN_ANOMALY":125.2977,"EPHEMERIS_TYPE":0,"CLASSIFICATION_TYPE":"U","NORAD_CAT_ID":58145,"ELEMENT_SET_NO":999,"REV_AT_EPOCH":13224,"BSTAR":0.00030771871,"MEAN_MOTION_DOT":6.157e-5,"MEAN_MOTION_DDOT":0},{"OBJECT_NAME":"FALCON 9 DEB","OBJECT_ID":"2021-041BK","EPOCH":"2026-03-09T13:04:15.781440","MEAN_MOTION":15.14721468,"ECCENTRICITY":0.00108412,"INCLINATION":53.0211,"RA_OF_ASC_NODE":167.2269,"ARG_OF_PERICENTER":177.7272,"MEAN_ANOMALY":182.3771,"EPHEMERIS_TYPE":0,"CLASSIFICATION_TYPE":"U","NORAD_CAT_ID":48610,"ELEMENT_SET_NO":999,"REV_AT_EPOCH":26460,"BSTAR":0.00039810006,"MEAN_MOTION_DOT":7.171e-5,"MEAN_MOTION_DDOT":0}]
